MALLIGYONG-1            
1 58400U 23179A   24095.94679788  .00004953  00000+0  22139-3 0  9997
2 58400  97.4141 343.8919 0010449 150.3014 209.8818 15.21735820 20589
